start=new Date('2022-08-02T00:00:00.000Z').valueOf();
sats=[{"SEMIMAJOR_AXIS":"6925.362","APOAPSIS":"548.576","BSTAR":"0.00008310000000","RCS_SIZE":"LARGE","TLE_LINE1":"1 46334U 20062K   22213.87902232  .00000956  00000-0  83100-4 0  9999","FILE":"3527139","REV_AT_EPOCH":"10626","PERIAPSIS":"545.879","ECCENTRICITY":"0.00019470","NORAD_CAT_ID":"46334","EPOCH":"2022-08-01T21:05:47.528448","OBJECT_NAME":"STARLINK-1725","SITE":"AFETR","GP_ID":"209387469","MEAN_MOTION_DDOT":"0.0000000000000","ELEMENT_SET_NO":"999","MEAN_MOTION_DOT":"0.00000956","INCLINATION":"53.0550","CENTER_NAME":"EARTH","MEAN_ELEMENT_THEORY":"SGP4","OBJECT_ID":"2020-062K","ARG_OF_PERICENTER":"67.1678","TLE_LINE2":"2 46334  53.0550 143.7970 0001947  67.1678 292.9517 15.06395497106266","CLASSIFICATION_TYPE":"U","COUNTRY_CODE":"US","MEAN_ANOMALY":"292.9517","DECAY_DATE":null,"MEAN_MOTION":"15.06395497","LAUNCH_DATE":"2020-09-03","REF_FRAME":"TEME","TIME_SYSTEM":"UTC","PERIOD":"95.592","OBJECT_TYPE":"PAYLOAD","RA_OF_ASC_NODE":"143.7970","EPHEMERIS_TYPE":"0"},{"ARG_OF_PERICENTER":"69.8513","TLE_LINE2":"2 46335  53.0543 163.7095 0002058  69.8513 290.2697 15.06400253105985","MEAN_ELEMENT_THEORY":"SGP4","CENTER_NAME":"EARTH","OBJECT_ID":"2020-062L","MEAN_MOTION_DOT":"0.00001389","INCLINATION":"53.0543","EPHEMERIS_TYPE":"0","PERIOD":"95.592","TIME_SYSTEM":"UTC","RA_OF_ASC_NODE":"163.7095","OBJECT_TYPE":"PAYLOAD","MEAN_MOTION":"15.06400253","DECAY_DATE":null,"LAUNCH_DATE":"2020-09-03","REF_FRAME":"TEME","CLASSIFICATION_TYPE":"U","COUNTRY_CODE":"US","MEAN_ANOMALY":"290.2697","BSTAR":"0.00011213000000","RCS_SIZE":"LARGE","TLE_LINE1":"1 46335U 20062L   22213.84028386  .00001389  00000-0  11213-3 0  9992","FILE":"3527139","SEMIMAJOR_AXIS":"6925.348","APOAPSIS":"548.638","ELEMENT_SET_NO":"999","MEAN_MOTION_DDOT":"0.0000000000000","OBJECT_NAME":"STARLINK-1727","EPOCH":"2022-08-01T20:10:00.525504","GP_ID":"209386726","SITE":"AFETR","PERIAPSIS":"545.788","ECCENTRICITY":"0.00020580","NORAD_CAT_ID":"46335","REV_AT_EPOCH":"10598"},{"EPHEMERIS_TYPE":"0","PERIOD":"95.592","TIME_SYSTEM":"UTC","RA_OF_ASC_NODE":"144.0314","OBJECT_TYPE":"PAYLOAD","DECAY_DATE":null,"MEAN_MOTION":"15.06397042","REF_FRAME":"TEME","LAUNCH_DATE":"2020-09-03","CLASSIFICATION_TYPE":"U","MEAN_ANOMALY":"298.2326","COUNTRY_CODE":"US","ARG_OF_PERICENTER":"61.8843","TLE_LINE2":"2 46336  53.0533 144.0314 0001792  61.8843 298.2326 15.06397042106241","CENTER_NAME":"EARTH","MEAN_ELEMENT_THEORY":"SGP4","OBJECT_ID":"2020-062M","MEAN_MOTION_DOT":"0.00000863","INCLINATION":"53.0533","ELEMENT_SET_NO":"999","MEAN_MOTION_DDOT":"0.0000000000000","EPOCH":"2022-08-01T18:21:11.757024","OBJECT_NAME":"STARLINK-1738","GP_ID":"209386977","SITE":"AFETR","PERIAPSIS":"545.982","ECCENTRICITY":"0.00017920","NORAD_CAT_ID":"46336","REV_AT_EPOCH":"10624","BSTAR":"0.00007682000000","RCS_SIZE":"LARGE","FILE":"3527139","TLE_LINE1":"1 46336U 20062M   22213.76471941  .00000863  00000-0  76820-4 0  9995","SEMIMAJOR_AXIS":"6925.358","APOAPSIS":"548.464"},{"FILE":"3526726","TLE_LINE1":"1 46337U 20062N   22213.51408038 -.00000853  00000-0 -38361-4 0  9995","BSTAR":"-0.00003836100000","RCS_SIZE":"LARGE","SEMIMAJOR_AXIS":"6925.330","APOAPSIS":"548.649","ELEMENT_SET_NO":"999","MEAN_MOTION_DDOT":"0.0000000000000","GP_ID":"209306602","SITE":"AFETR","EPOCH":"2022-08-01T12:20:16.544832","OBJECT_NAME":"STARLINK-1750","ECCENTRICITY":"0.00020990","NORAD_CAT_ID":"46337","PERIAPSIS":"545.742","REV_AT_EPOCH":"10639","TLE_LINE2":"2 46337  53.0548 145.1689 0002099  49.1805 310.9366 15.06405893106399","ARG_OF_PERICENTER":"49.1805","MEAN_ELEMENT_THEORY":"SGP4","CENTER_NAME":"EARTH","OBJECT_ID":"2020-062N","INCLINATION":"53.0548","MEAN_MOTION_DOT":"-0.00000853","EPHEMERIS_TYPE":"0","OBJECT_TYPE":"PAYLOAD","RA_OF_ASC_NODE":"145.1689","PERIOD":"95.592","TIME_SYSTEM":"UTC","MEAN_MOTION":"15.06405893","DECAY_DATE":null,"REF_FRAME":"TEME","LAUNCH_DATE":"2020-09-03","MEAN_ANOMALY":"310.9366","COUNTRY_CODE":"US","CLASSIFICATION_TYPE":"U"},{"OBJECT_TYPE":"PAYLOAD","RA_OF_ASC_NODE":"164.9503","PERIOD":"95.593","TIME_SYSTEM":"UTC","EPHEMERIS_TYPE":"0","MEAN_ANOMALY":"292.8736","COUNTRY_CODE":"US","CLASSIFICATION_TYPE":"U","REF_FRAME":"TEME","LAUNCH_DATE":"2020-09-03","DECAY_DATE":null,"MEAN_MOTION":"15.06393699","TLE_LINE2":"2 46338  53.0559 164.9503 0001885  67.2452 292.8736 15.06393699105935","ARG_OF_PERICENTER":"67.2452","INCLINATION":"53.0559","MEAN_MOTION_DOT":"0.00000486","OBJECT_ID":"2020-062P","MEAN_ELEMENT_THEORY":"SGP4","CENTER_NAME":"EARTH","GP_ID":"209330808","SITE":"AFETR","OBJECT_NAME":"STARLINK-1752","EPOCH":"2022-08-01T13:31:56.062848","ELEMENT_SET_NO":"999","MEAN_MOTION_DDOT":"0.0000000000000","REV_AT_EPOCH":"10593","NORAD_CAT_ID":"46338","ECCENTRICITY":"0.00018850","PERIAPSIS":"545.927","TLE_LINE1":"1 46338U 20062P   22213.56384332  .00000486  00000-0  51564-4 0  9991","FILE":"3526929","RCS_SIZE":"LARGE","BSTAR":"0.00005156400000","APOAPSIS":"548.538","SEMIMAJOR_AXIS":"6925.368"},{"DECAY_DATE":null,"MEAN_MOTION":"15.06397701","LAUNCH_DATE":"2020-09-03","REF_FRAME":"TEME","COUNTRY_CODE":"US","MEAN_ANOMALY":"295.0999","CLASSIFICATION_TYPE":"U","EPHEMERIS_TYPE":"0","OBJECT_TYPE":"PAYLOAD","RA_OF_ASC_NODE":"163.8774","PERIOD":"95.592","TIME_SYSTEM":"UTC","MEAN_ELEMENT_THEORY":"SGP4","CENTER_NAME":"EARTH","OBJECT_ID":"2020-062R","INCLINATION":"53.0545","MEAN_MOTION_DOT":"0.00001312","TLE_LINE2":"2 46340  53.0545 163.8774 0002145  65.0212 295.0999 15.06397701105968","ARG_OF_PERICENTER":"65.0212","ECCENTRICITY":"0.00021450","NORAD_CAT_ID":"46340","PERIAPSIS":"545.735","REV_AT_EPOCH":"10596","ELEMENT_SET_NO":"999","MEAN_MOTION_DDOT":"0.0000000000000","SITE":"AFETR","GP_ID":"209386227","EPOCH":"2022-08-01T19:16:56.413344","OBJECT_NAME":"STARLINK-1759","SEMIMAJOR_AXIS":"6925.356","APOAPSIS":"548.706","FILE":"3527139","TLE_LINE1":"1 46340U 20062R   22213.80343071  .00001312  00000-0  10697-3 0  9996","BSTAR":"0.00010697000000","RCS_SIZE":"LARGE"},{"REV_AT_EPOCH":"10626","ECCENTRICITY":"0.00020410","NORAD_CAT_ID":"46341","PERIAPSIS":"545.805","GP_ID":"209386478","SITE":"AFETR","EPOCH":"2022-08-01T19:24:53.658432","OBJECT_NAME":"STARLINK-1760","MEAN_MOTION_DDOT":"0.0000000000000","ELEMENT_SET_NO":"999","SEMIMAJOR_AXIS":"6925.354","APOAPSIS":"548.632","TLE_LINE1":"1 46341U 20062S   22213.80895438  .00000315  00000-0  40041-4 0  9995","FILE":"3527139","BSTAR":"0.00004004100000","RCS_SIZE":"LARGE","MEAN_ANOMALY":"288.3261","COUNTRY_CODE":"US","CLASSIFICATION_TYPE":"U","MEAN_MOTION":"15.06398286","DECAY_DATE":null,"REF_FRAME":"TEME","LAUNCH_DATE":"2020-09-03","OBJECT_TYPE":"PAYLOAD","RA_OF_ASC_NODE":"143.8480","TIME_SYSTEM":"UTC","PERIOD":"95.592","EPHEMERIS_TYPE":"0","INCLINATION":"53.0557","MEAN_MOTION_DOT":"0.00000315","CENTER_NAME":"EARTH","MEAN_ELEMENT_THEORY":"SGP4","OBJECT_ID":"2020-062S","TLE_LINE2":"2 46341  53.0557 143.8480 0002041  71.7950 288.3261 15.06398286106262","ARG_OF_PERICENTER":"71.7950"},{"MEAN_ELEMENT_THEORY":"SGP4","CENTER_NAME":"EARTH","OBJECT_ID":"2020-062T","INCLINATION":"53.0555","MEAN_MOTION_DOT":"-0.00000087","TLE_LINE2":"2 46342  53.0555 164.8166 0001891  67.1295 292.9893 15.06396020106129","ARG_OF_PERICENTER":"67.1295","MEAN_MOTION":"15.06396020","DECAY_DATE":null,"REF_FRAME":"TEME","LAUNCH_DATE":"2020-09-03","COUNTRY_CODE":"US","MEAN_ANOMALY":"292.9893","CLASSIFICATION_TYPE":"U","EPHEMERIS_TYPE":"0","OBJECT_TYPE":"PAYLOAD","RA_OF_ASC_NODE":"164.8166","TIME_SYSTEM":"UTC","PERIOD":"95.592","SEMIMAJOR_AXIS":"6925.361","APOAPSIS":"548.535","TLE_LINE1":"1 46342U 20062T   22213.58964323 -.00000087  00000-0  13043-4 0  9990","FILE":"3526940","BSTAR":"0.00001304300000","RCS_SIZE":"LARGE","ECCENTRICITY":"0.00018910","NORAD_CAT_ID":"46342","PERIAPSIS":"545.916","REV_AT_EPOCH":"10612","ELEMENT_SET_NO":"999","MEAN_MOTION_DDOT":"0.0000000000000","GP_ID":"209363004","SITE":"AFETR","EPOCH":"2022-08-01T14:09:05.175072","OBJECT_NAME":"STARLINK-1762"},{"OBJECT_NAME":"STARLINK-1764","EPOCH":"2022-08-01T12:25:35.261472","SITE":"AFETR","GP_ID":"209331309","MEAN_MOTION_DDOT":"0.0000000000000","ELEMENT_SET_NO":"999","REV_AT_EPOCH":"10621","PERIAPSIS":"545.970","ECCENTRICITY":"0.00018340","NORAD_CAT_ID":"46343","BSTAR":"0.00000751670000","RCS_SIZE":"LARGE","FILE":"3526929","TLE_LINE1":"1 46343U 20062U   22213.51776923 -.00000170  00000-0  75167-5 0  9990","SEMIMAJOR_AXIS":"6925.375","APOAPSIS":"548.510","PERIOD":"95.593","TIME_SYSTEM":"UTC","RA_OF_ASC_NODE":"145.1538","OBJECT_TYPE":"PAYLOAD","EPHEMERIS_TYPE":"0","CLASSIFICATION_TYPE":"U","COUNTRY_CODE":"US","MEAN_ANOMALY":"291.8655","MEAN_MOTION":"15.06391436","DECAY_DATE":null,"LAUNCH_DATE":"2020-09-03","REF_FRAME":"TEME","ARG_OF_PERICENTER":"68.2529","TLE_LINE2":"2 46343  53.0540 145.1538 0001834  68.2529 291.8655 15.06391436106218","MEAN_MOTION_DOT":"-0.00000170","INCLINATION":"53.0540","MEAN_ELEMENT_THEORY":"SGP4","CENTER_NAME":"EARTH","OBJECT_ID":"2020-062U"},{"OBJECT_ID":"2020-062V","MEAN_ELEMENT_THEORY":"SGP4","CENTER_NAME":"EARTH","INCLINATION":"53.0549","MEAN_MOTION_DOT":"0.00002162","TLE_LINE2":"2 46344  53.0549 145.0722 0002087  61.5382 298.5817 15.06397613106370","ARG_OF_PERICENTER":"61.5382","LAUNCH_DATE":"2020-09-03","REF_FRAME":"TEME","DECAY_DATE":null,"MEAN_MOTION":"15.06397613","MEAN_ANOMALY":"298.5817","COUNTRY_CODE":"US","CLASSIFICATION_TYPE":"U","EPHEMERIS_TYPE":"0","RA_OF_ASC_NODE":"145.0722","OBJECT_TYPE":"PAYLOAD","TIME_SYSTEM":"UTC","PERIOD":"95.592","APOAPSIS":"548.666","SEMIMAJOR_AXIS":"6925.356","FILE":"3526977","TLE_LINE1":"1 46344U 20062V   22213.53619694  .00002162  00000-0  16403-3 0  9992","RCS_SIZE":"LARGE","BSTAR":"0.00016403000000","NORAD_CAT_ID":"46344","ECCENTRICITY":"0.00020870","PERIAPSIS":"545.776","REV_AT_EPOCH":"10637","ELEMENT_SET_NO":"999","MEAN_MOTION_DDOT":"0.0000000000000","GP_ID":"209363509","SITE":"AFETR","OBJECT_NAME":"STARLINK-1765","EPOCH":"2022-08-01T12:52:07.415616"}];
